start=new Date('2023-01-12T00:00:00.000Z').valueOf();
sats=[{"OBJECT_TYPE":"PAYLOAD","LAUNCH_DATE":"2022-05-06","PERIAPSIS":"537.809","MEAN_MOTION":"15.08832115","REF_FRAME":"TEME","CLASSIFICATION_TYPE":"U","BSTAR":"-0.00000186520000","TIME_SYSTEM":"UTC","MEAN_ANOMALY":"319.0262","RCS_SIZE":"LARGE","FILE":"3740419","MEAN_ELEMENT_THEORY":"SGP4","EPOCH":"2023-01-11T19:02:30.088320","PERIOD":"95.438","DECAY_DATE":null,"RA_OF_ASC_NODE":"204.6800","ECCENTRICITY":"0.00028340","OBJECT_ID":"2022-049E","TLE_LINE1":"1 52455U 22049E   23011.79340380 -.00000318  00000-0 -18652-5 0  9990","ARG_OF_PERICENTER":"41.0943","CENTER_NAME":"EARTH","APOAPSIS":"541.730","COUNTRY_CODE":"US","OBJECT_NAME":"STARLINK-3890","SEMIMAJOR_AXIS":"6917.904","ELEMENT_SET_NO":"999","GP_ID":"222824843","EPHEMERIS_TYPE":"0","MEAN_MOTION_DOT":"-0.00000318","REV_AT_EPOCH":"3806","NORAD_CAT_ID":"52455","TLE_LINE2":"2 52455  53.2126 204.6800 0002834  41.0943 319.0262 15.08832115 38064","SITE":"AFETR","MEAN_MOTION_DDOT":"0.0000000000000","INCLINATION":"53.2126"},{"EPHEMERIS_TYPE":"0","NORAD_CAT_ID":"52456","MEAN_MOTION_DOT":"-0.00001188","REV_AT_EPOCH":"3807","TLE_LINE2":"2 52456  53.2136 204.4017 0002809  40.8707 319.2495 15.08840232 38071","MEAN_MOTION_DDOT":"0.0000000000000","INCLINATION":"53.2136","SITE":"AFETR","APOAPSIS":"541.688","ARG_OF_PERICENTER":"40.8707","CENTER_NAME":"EARTH","COUNTRY_CODE":"US","OBJECT_NAME":"STARLINK-3896","SEMIMAJOR_AXIS":"6917.880","ELEMENT_SET_NO":"999","GP_ID":"222825595","FILE":"3740419","MEAN_ELEMENT_THEORY":"SGP4","PERIOD":"95.438","EPOCH":"2023-01-11T20:32:33.832896","DECAY_DATE":null,"RA_OF_ASC_NODE":"204.4017","ECCENTRICITY":"0.00028090","TLE_LINE1":"1 52456U 22049F   23011.85594714 -.00001188  00000-0 -56520-4 0  9991","OBJECT_ID":"2022-049F","OBJECT_TYPE":"PAYLOAD","PERIAPSIS":"537.801","LAUNCH_DATE":"2022-05-06","MEAN_MOTION":"15.08840232","REF_FRAME":"TEME","MEAN_ANOMALY":"319.2495","BSTAR":"-0.00005652000000","TIME_SYSTEM":"UTC","CLASSIFICATION_TYPE":"U","RCS_SIZE":"LARGE"},{"COUNTRY_CODE":"US","APOAPSIS":"541.417","ARG_OF_PERICENTER":"37.3027","CENTER_NAME":"EARTH","OBJECT_NAME":"STARLINK-3899","ELEMENT_SET_NO":"999","GP_ID":"222826342","SEMIMAJOR_AXIS":"6917.874","NORAD_CAT_ID":"52457","REV_AT_EPOCH":"3806","MEAN_MOTION_DOT":"0.00003218","EPHEMERIS_TYPE":"0","TLE_LINE2":"2 52457  53.2164 204.7205 0002425  37.3027 322.8133 15.08842107 38066","INCLINATION":"53.2164","MEAN_MOTION_DDOT":"0.0000000000000","SITE":"AFETR","OBJECT_TYPE":"PAYLOAD","REF_FRAME":"TEME","LAUNCH_DATE":"2022-05-06","PERIAPSIS":"538.061","MEAN_MOTION":"15.08842107","BSTAR":"0.00022022000000","MEAN_ANOMALY":"322.8133","TIME_SYSTEM":"UTC","CLASSIFICATION_TYPE":"U","RCS_SIZE":"LARGE","MEAN_ELEMENT_THEORY":"SGP4","FILE":"3740419","PERIOD":"95.437","EPOCH":"2023-01-11T18:51:53.150112","RA_OF_ASC_NODE":"204.7205","DECAY_DATE":null,"TLE_LINE1":"1 52457U 22049G   23011.78603183  .00003218  00000-0  22022-3 0  9998","OBJECT_ID":"2022-049G","ECCENTRICITY":"0.00024250"},{"OBJECT_TYPE":"PAYLOAD","REF_FRAME":"TEME","LAUNCH_DATE":"2022-05-06","PERIAPSIS":"538.510","MEAN_MOTION":"15.08849180","CLASSIFICATION_TYPE":"U","BSTAR":"0.00013434000000","TIME_SYSTEM":"UTC","MEAN_ANOMALY":"304.1333","RCS_SIZE":"LARGE","MEAN_ELEMENT_THEORY":"SGP4","FILE":"3740419","EPOCH":"2023-01-11T15:35:48.628032","PERIOD":"95.437","RA_OF_ASC_NODE":"205.3206","DECAY_DATE":null,"OBJECT_ID":"2022-049H","TLE_LINE1":"1 52458U 22049H   23011.64986838  .00001851  00000-0  13434-3 0  9993","ECCENTRICITY":"0.00017450","COUNTRY_CODE":"US","CENTER_NAME":"EARTH","ARG_OF_PERICENTER":"55.9825","APOAPSIS":"540.924","OBJECT_NAME":"STARLINK-3898","GP_ID":"222824595","ELEMENT_SET_NO":"999","SEMIMAJOR_AXIS":"6917.852","MEAN_MOTION_DOT":"0.00001851","REV_AT_EPOCH":"3804","NORAD_CAT_ID":"52458","EPHEMERIS_TYPE":"0","TLE_LINE2":"2 52458  53.2136 205.3206 0001745  55.9825 304.1333 15.08849180 38041","SITE":"AFETR","MEAN_MOTION_DDOT":"0.0000000000000","INCLINATION":"53.2136"},{"PERIAPSIS":"538.030","LAUNCH_DATE":"2022-05-06","MEAN_MOTION":"15.08846499","REF_FRAME":"TEME","OBJECT_TYPE":"PAYLOAD","RCS_SIZE":"LARGE","CLASSIFICATION_TYPE":"U","TIME_SYSTEM":"UTC","BSTAR":"0.00011853000000","MEAN_ANOMALY":"301.7233","EPOCH":"2023-01-11T21:36:06.627744","PERIOD":"95.437","FILE":"3740419","MEAN_ELEMENT_THEORY":"SGP4","ECCENTRICITY":"0.00024510","OBJECT_ID":"2022-049J","TLE_LINE1":"1 52459U 22049J   23011.90007671  .00001599  00000-0  11853-3 0  9994","DECAY_DATE":null,"RA_OF_ASC_NODE":"194.1903","CENTER_NAME":"EARTH","ARG_OF_PERICENTER":"58.3999","APOAPSIS":"541.421","COUNTRY_CODE":"US","SEMIMAJOR_AXIS":"6917.861","GP_ID":"222825344","ELEMENT_SET_NO":"999","OBJECT_NAME":"STARLINK-3856","EPHEMERIS_TYPE":"0","MEAN_MOTION_DOT":"0.00001599","REV_AT_EPOCH":"3821","NORAD_CAT_ID":"52459","SITE":"AFETR","MEAN_MOTION_DDOT":"0.0000000000000","INCLINATION":"53.2162","TLE_LINE2":"2 52459  53.2162 194.1903 0002451  58.3999 301.7233 15.08846499 38215"},{"COUNTRY_CODE":"US","APOAPSIS":"540.474","CENTER_NAME":"EARTH","ARG_OF_PERICENTER":"99.3720","ELEMENT_SET_NO":"999","GP_ID":"222826096","SEMIMAJOR_AXIS":"6917.881","OBJECT_NAME":"STARLINK-3865","NORAD_CAT_ID":"52460","REV_AT_EPOCH":"3821","MEAN_MOTION_DOT":"0.00000458","EPHEMERIS_TYPE":"0","MEAN_MOTION_DDOT":"0.0000000000000","INCLINATION":"53.2160","SITE":"AFETR","TLE_LINE2":"2 52460  53.2160 194.2029 0001053  99.3720 260.7391 15.08839923 38212","LAUNCH_DATE":"2022-05-06","PERIAPSIS":"539.017","MEAN_MOTION":"15.08839923","REF_FRAME":"TEME","OBJECT_TYPE":"PAYLOAD","RCS_SIZE":"LARGE","TIME_SYSTEM":"UTC","BSTAR":"0.00004686200000","MEAN_ANOMALY":"260.7391","CLASSIFICATION_TYPE":"U","PERIOD":"95.438","EPOCH":"2023-01-11T21:32:12.634080","MEAN_ELEMENT_THEORY":"SGP4","FILE":"3740419","TLE_LINE1":"1 52460U 22049K   23011.89736845  .00000458  00000-0  46862-4 0  9998","OBJECT_ID":"2022-049K","ECCENTRICITY":"0.00010530","RA_OF_ASC_NODE":"194.2029","DECAY_DATE":null},{"DECAY_DATE":null,"RA_OF_ASC_NODE":"184.2067","ECCENTRICITY":"0.00021340","TLE_LINE1":"1 52461U 22049L   23011.89731953 -.00000377  00000-0 -56025-5 0  9999","OBJECT_ID":"2022-049L","FILE":"3740419","MEAN_ELEMENT_THEORY":"SGP4","EPOCH":"2023-01-11T21:32:08.407392","PERIOD":"95.437","CLASSIFICATION_TYPE":"U","MEAN_ANOMALY":"305.0336","BSTAR":"-0.00000560250000","TIME_SYSTEM":"UTC","RCS_SIZE":"LARGE","OBJECT_TYPE":"PAYLOAD","MEAN_MOTION":"15.08843067","LAUNCH_DATE":"2022-05-06","PERIAPSIS":"538.260","REF_FRAME":"TEME","TLE_LINE2":"2 52461  53.2161 184.2067 0002134  55.0857 305.0336 15.08843067 38357","SITE":"AFETR","MEAN_MOTION_DDOT":"0.0000000000000","INCLINATION":"53.2161","EPHEMERIS_TYPE":"0","MEAN_MOTION_DOT":"-0.00000377","REV_AT_EPOCH":"3835","NORAD_CAT_ID":"52461","OBJECT_NAME":"STARLINK-3900","SEMIMAJOR_AXIS":"6917.871","ELEMENT_SET_NO":"999","GP_ID":"222825842","CENTER_NAME":"EARTH","ARG_OF_PERICENTER":"55.0857","APOAPSIS":"541.212","COUNTRY_CODE":"US"},{"OBJECT_TYPE":"PAYLOAD","LAUNCH_DATE":"2022-05-06","REF_FRAME":"TEME","PERIAPSIS":"538.565","MEAN_MOTION":"15.08844410","CLASSIFICATION_TYPE":"U","TIME_SYSTEM":"UTC","BSTAR":"0.00014998000000","MEAN_ANOMALY":"279.9142","RCS_SIZE":"LARGE","FILE":"3740419","MEAN_ELEMENT_THEORY":"SGP4","EPOCH":"2023-01-11T21:25:30.788544","PERIOD":"95.437","DECAY_DATE":null,"RA_OF_ASC_NODE":"194.2244","ECCENTRICITY":"0.00016870","TLE_LINE1":"1 52462U 22049M   23011.89271746  .00002100  00000-0  14998-3 0  9994","OBJECT_ID":"2022-049M","ARG_OF_PERICENTER":"80.2041","CENTER_NAME":"EARTH","APOAPSIS":"540.899","COUNTRY_CODE":"US","OBJECT_NAME":"STARLINK-3903","SEMIMAJOR_AXIS":"6917.867","GP_ID":"222825095","ELEMENT_SET_NO":"999","EPHEMERIS_TYPE":"0","MEAN_MOTION_DOT":"0.00002100","REV_AT_EPOCH":"3821","NORAD_CAT_ID":"52462","TLE_LINE2":"2 52462  53.2153 194.2244 0001687  80.2041 279.9142 15.08844410 38216","SITE":"AFETR","INCLINATION":"53.2153","MEAN_MOTION_DDOT":"0.0000000000000"},{"INCLINATION":"53.2153","MEAN_MOTION_DDOT":"0.0000000000000","SITE":"AFETR","TLE_LINE2":"2 52463  53.2153 184.2188 0002995  38.9235 321.1972 15.08853106 38359","NORAD_CAT_ID":"52463","MEAN_MOTION_DOT":"0.00000831","REV_AT_EPOCH":"3835","EPHEMERIS_TYPE":"0","GP_ID":"222824844","ELEMENT_SET_NO":"999","SEMIMAJOR_AXIS":"6917.840","OBJECT_NAME":"STARLINK-3885","COUNTRY_CODE":"US","APOAPSIS":"541.777","CENTER_NAME":"EARTH","ARG_OF_PERICENTER":"38.9235","TLE_LINE1":"1 52463U 22049N   23011.89362423  .00000831  00000-0  70306-4 0  9993","OBJECT_ID":"2022-049N","ECCENTRICITY":"0.00029950","RA_OF_ASC_NODE":"184.2188","DECAY_DATE":null,"PERIOD":"95.437","EPOCH":"2023-01-11T21:26:49.133472","MEAN_ELEMENT_THEORY":"SGP4","FILE":"3740419","RCS_SIZE":"MEDIUM","BSTAR":"0.00007030600000","MEAN_ANOMALY":"321.1972","TIME_SYSTEM":"UTC","CLASSIFICATION_TYPE":"U","PERIAPSIS":"537.633","LAUNCH_DATE":"2022-05-06","MEAN_MOTION":"15.08853106","REF_FRAME":"TEME","OBJECT_TYPE":"PAYLOAD"},{"EPOCH":"2023-01-11T18:20:00.876192","PERIOD":"95.437","MEAN_ELEMENT_THEORY":"SGP4","FILE":"3740419","TLE_LINE1":"1 52464U 22049P   23011.76389903  .00000956  00000-0  78160-4 0  9996","OBJECT_ID":"2022-049P","ECCENTRICITY":"0.00025790","RA_OF_ASC_NODE":"194.8067","DECAY_DATE":null,"LAUNCH_DATE":"2022-05-06","MEAN_MOTION":"15.08843016","PERIAPSIS":"537.952","REF_FRAME":"TEME","OBJECT_TYPE":"PAYLOAD","RCS_SIZE":"LARGE","CLASSIFICATION_TYPE":"U","BSTAR":"0.00007816000000","TIME_SYSTEM":"UTC","MEAN_ANOMALY":"322.7581","REV_AT_EPOCH":"3819","MEAN_MOTION_DOT":"0.00000956","NORAD_CAT_ID":"52464","EPHEMERIS_TYPE":"0","SITE":"AFETR","MEAN_MOTION_DDOT":"0.0000000000000","INCLINATION":"53.2156","TLE_LINE2":"2 52464  53.2156 194.8067 0002579  37.3590 322.7581 15.08843016 38195","COUNTRY_CODE":"US","ARG_OF_PERICENTER":"37.3590","CENTER_NAME":"EARTH","APOAPSIS":"541.520","GP_ID":"222825596","ELEMENT_SET_NO":"999","SEMIMAJOR_AXIS":"6917.871","OBJECT_NAME":"STARLINK-3904"}];
